<?xml version="1.0" encoding="UTF-8"?>
<ndm xmlns:xsi="http://www.w3.org/2001/XMLSchema-instance" xsi:noNamespaceSchemaLocation="https://sanaregistry.org/r/ndmxml_unqualified/ndmxml-2.0.0-master-2.0.xsd">
<omm id="CCSDS_OMM_VERS" version="2.0">
<header><CREATION_DATE/><ORIGINATOR/></header><body><segment><metadata><OBJECT_NAME>ORBCOMM FM33</OBJECT_NAME><OBJECT_ID>1999-065D</OBJECT_ID><CENTER_NAME>EARTH</CENTER_NAME><REF_FRAME>TEME</REF_FRAME><TIME_SYSTEM>UTC</TIME_SYSTEM><MEAN_ELEMENT_THEORY>SGP4</MEAN_ELEMENT_THEORY></metadata><data><meanElements><EPOCH>2024-07-02T13:12:20.005056</EPOCH><MEAN_MOTION>14.37892831</MEAN_MOTION><ECCENTRICITY>.000621</ECCENTRICITY><INCLINATION>45.0277</INCLINATION><RA_OF_ASC_NODE>218.7121</RA_OF_ASC_NODE><ARG_OF_PERICENTER>104.0659</ARG_OF_PERICENTER><MEAN_ANOMALY>256.0880</MEAN_ANOMALY></meanElements><tleParameters><EPHEMERIS_TYPE>0</EPHEMERIS_TYPE><CLASSIFICATION_TYPE>U</CLASSIFICATION_TYPE><NORAD_CAT_ID>25983</NORAD_CAT_ID><ELEMENT_SET_NO>999</ELEMENT_SET_NO><REV_AT_EPOCH>28570</REV_AT_EPOCH><BSTAR>.48619E-3</BSTAR><MEAN_MOTION_DOT>.1339E-4</MEAN_MOTION_DOT><MEAN_MOTION_DDOT>0</MEAN_MOTION_DDOT></tleParameters></data></segment></body></omm>
<omm id="CCSDS_OMM_VERS" version="2.0">
<header><CREATION_DATE/><ORIGINATOR/></header><body><segment><metadata><OBJECT_NAME>ORBCOMM FM36</OBJECT_NAME><OBJECT_ID>1999-065E</OBJECT_ID><CENTER_NAME>EARTH</CENTER_NAME><REF_FRAME>TEME</REF_FRAME><TIME_SYSTEM>UTC</TIME_SYSTEM><MEAN_ELEMENT_THEORY>SGP4</MEAN_ELEMENT_THEORY></metadata><data><meanElements><EPOCH>2024-07-02T19:21:32.018112</EPOCH><MEAN_MOTION>14.35819461</MEAN_MOTION><ECCENTRICITY>.0003124</ECCENTRICITY><INCLINATION>45.0402</INCLINATION><RA_OF_ASC_NODE>303.9046</RA_OF_ASC_NODE><ARG_OF_PERICENTER>307.9017</ARG_OF_PERICENTER><MEAN_ANOMALY>52.1548</MEAN_ANOMALY></meanElements><tleParameters><EPHEMERIS_TYPE>0</EPHEMERIS_TYPE><CLASSIFICATION_TYPE>U</CLASSIFICATION_TYPE><NORAD_CAT_ID>25984</NORAD_CAT_ID><ELEMENT_SET_NO>999</ELEMENT_SET_NO><REV_AT_EPOCH>28475</REV_AT_EPOCH><BSTAR>.76495E-3</BSTAR><MEAN_MOTION_DOT>.2094E-4</MEAN_MOTION_DOT><MEAN_MOTION_DDOT>0</MEAN_MOTION_DDOT></tleParameters></data></segment></body></omm>
<omm id="CCSDS_OMM_VERS" version="2.0">
<header><CREATION_DATE/><ORIGINATOR/></header><body><segment><metadata><OBJECT_NAME>ORBCOMM FM35</OBJECT_NAME><OBJECT_ID>1999-065F</OBJECT_ID><CENTER_NAME>EARTH</CENTER_NAME><REF_FRAME>TEME</REF_FRAME><TIME_SYSTEM>UTC</TIME_SYSTEM><MEAN_ELEMENT_THEORY>SGP4</MEAN_ELEMENT_THEORY></metadata><data><meanElements><EPOCH>2024-07-02T19:05:59.604864</EPOCH><MEAN_MOTION>14.35333276</MEAN_MOTION><ECCENTRICITY>.0002341</ECCENTRICITY><INCLINATION>45.0411</INCLINATION><RA_OF_ASC_NODE>306.7899</RA_OF_ASC_NODE><ARG_OF_PERICENTER>118.2907</ARG_OF_PERICENTER><MEAN_ANOMALY>241.8177</MEAN_ANOMALY></meanElements><tleParameters><EPHEMERIS_TYPE>0</EPHEMERIS_TYPE><CLASSIFICATION_TYPE>U</CLASSIFICATION_TYPE><NORAD_CAT_ID>25985</NORAD_CAT_ID><ELEMENT_SET_NO>999</ELEMENT_SET_NO><REV_AT_EPOCH>28455</REV_AT_EPOCH><BSTAR>.58335E-3</BSTAR><MEAN_MOTION_DOT>.1546E-4</MEAN_MOTION_DOT><MEAN_MOTION_DDOT>0</MEAN_MOTION_DDOT></tleParameters></data></segment></body></omm>
<omm id="CCSDS_OMM_VERS" version="2.0">
<header><CREATION_DATE/><ORIGINATOR/></header><body><segment><metadata><OBJECT_NAME>ORBCOMM FM34</OBJECT_NAME><OBJECT_ID>1999-065G</OBJECT_ID><CENTER_NAME>EARTH</CENTER_NAME><REF_FRAME>TEME</REF_FRAME><TIME_SYSTEM>UTC</TIME_SYSTEM><MEAN_ELEMENT_THEORY>SGP4</MEAN_ELEMENT_THEORY></metadata><data><meanElements><EPOCH>2024-07-02T16:44:45.125664</EPOCH><MEAN_MOTION>14.35309650</MEAN_MOTION><ECCENTRICITY>.0001958</ECCENTRICITY><INCLINATION>45.0399</INCLINATION><RA_OF_ASC_NODE>307.7972</RA_OF_ASC_NODE><ARG_OF_PERICENTER>20.5125</ARG_OF_PERICENTER><MEAN_ANOMALY>339.5801</MEAN_ANOMALY></meanElements><tleParameters><EPHEMERIS_TYPE>0</EPHEMERIS_TYPE><CLASSIFICATION_TYPE>U</CLASSIFICATION_TYPE><NORAD_CAT_ID>25986</NORAD_CAT_ID><ELEMENT_SET_NO>999</ELEMENT_SET_NO><REV_AT_EPOCH>28465</REV_AT_EPOCH><BSTAR>.56147E-3</BSTAR><MEAN_MOTION_DOT>.1482E-4</MEAN_MOTION_DOT><MEAN_MOTION_DDOT>0</MEAN_MOTION_DDOT></tleParameters></data></segment></body></omm>
<omm id="CCSDS_OMM_VERS" version="2.0">
<header><CREATION_DATE/><ORIGINATOR/></header><body><segment><metadata><OBJECT_NAME>ORBCOMM FM38</OBJECT_NAME><OBJECT_ID>2008-031A</OBJECT_ID><CENTER_NAME>EARTH</CENTER_NAME><REF_FRAME>TEME</REF_FRAME><TIME_SYSTEM>UTC</TIME_SYSTEM><MEAN_ELEMENT_THEORY>SGP4</MEAN_ELEMENT_THEORY></metadata><data><meanElements><EPOCH>2024-07-02T21:59:06.834912</EPOCH><MEAN_MOTION>14.77886587</MEAN_MOTION><ECCENTRICITY>.0006027</ECCENTRICITY><INCLINATION>48.4389</INCLINATION><RA_OF_ASC_NODE>175.7045</RA_OF_ASC_NODE><ARG_OF_PERICENTER>340.0375</ARG_OF_PERICENTER><MEAN_ANOMALY>20.0303</MEAN_ANOMALY></meanElements><tleParameters><EPHEMERIS_TYPE>0</EPHEMERIS_TYPE><CLASSIFICATION_TYPE>U</CLASSIFICATION_TYPE><NORAD_CAT_ID>33060</NORAD_CAT_ID><ELEMENT_SET_NO>999</ELEMENT_SET_NO><REV_AT_EPOCH>86302</REV_AT_EPOCH><BSTAR>.41867E-3</BSTAR><MEAN_MOTION_DOT>.2837E-4</MEAN_MOTION_DOT><MEAN_MOTION_DDOT>0</MEAN_MOTION_DDOT></tleParameters></data></segment></body></omm>
<omm id="CCSDS_OMM_VERS" version="2.0">
<header><CREATION_DATE/><ORIGINATOR/></header><body><segment><metadata><OBJECT_NAME>ORBCOMM FM41</OBJECT_NAME><OBJECT_ID>2008-031B</OBJECT_ID><CENTER_NAME>EARTH</CENTER_NAME><REF_FRAME>TEME</REF_FRAME><TIME_SYSTEM>UTC</TIME_SYSTEM><MEAN_ELEMENT_THEORY>SGP4</MEAN_ELEMENT_THEORY></metadata><data><meanElements><EPOCH>2024-07-02T17:35:41.430624</EPOCH><MEAN_MOTION>14.77608896</MEAN_MOTION><ECCENTRICITY>.0005305</ECCENTRICITY><INCLINATION>48.4423</INCLINATION><RA_OF_ASC_NODE>183.3189</RA_OF_ASC_NODE><ARG_OF_PERICENTER>325.9472</ARG_OF_PERICENTER><MEAN_ANOMALY>204.3295</MEAN_ANOMALY></meanElements><tleParameters><EPHEMERIS_TYPE>0</EPHEMERIS_TYPE><CLASSIFICATION_TYPE>U</CLASSIFICATION_TYPE><NORAD_CAT_ID>33061</NORAD_CAT_ID><ELEMENT_SET_NO>999</ELEMENT_SET_NO><REV_AT_EPOCH>86249</REV_AT_EPOCH><BSTAR>.39441E-3</BSTAR><MEAN_MOTION_DOT>.2642E-4</MEAN_MOTION_DOT><MEAN_MOTION_DDOT>0</MEAN_MOTION_DDOT></tleParameters></data></segment></body></omm>
<omm id="CCSDS_OMM_VERS" version="2.0">
<header><CREATION_DATE/><ORIGINATOR/></header><body><segment><metadata><OBJECT_NAME>ORBCOMM FM39</OBJECT_NAME><OBJECT_ID>2008-031D</OBJECT_ID><CENTER_NAME>EARTH</CENTER_NAME><REF_FRAME>TEME</REF_FRAME><TIME_SYSTEM>UTC</TIME_SYSTEM><MEAN_ELEMENT_THEORY>SGP4</MEAN_ELEMENT_THEORY></metadata><data><meanElements><EPOCH>2024-07-02T21:31:42.011328</EPOCH><MEAN_MOTION>14.76514274</MEAN_MOTION><ECCENTRICITY>.0008191</ECCENTRICITY><INCLINATION>48.4390</INCLINATION><RA_OF_ASC_NODE>211.5089</RA_OF_ASC_NODE><ARG_OF_PERICENTER>301.2403</ARG_OF_PERICENTER><MEAN_ANOMALY>58.7708</MEAN_ANOMALY></meanElements><tleParameters><EPHEMERIS_TYPE>0</EPHEMERIS_TYPE><CLASSIFICATION_TYPE>U</CLASSIFICATION_TYPE><NORAD_CAT_ID>33063</NORAD_CAT_ID><ELEMENT_SET_NO>999</ELEMENT_SET_NO><REV_AT_EPOCH>86212</REV_AT_EPOCH><BSTAR>.33406E-3</BSTAR><MEAN_MOTION_DOT>.2147E-4</MEAN_MOTION_DOT><MEAN_MOTION_DDOT>0</MEAN_MOTION_DDOT></tleParameters></data></segment></body></omm>

</ndm>
