ORBCOMM FM33            
1 25983U 99065D   24184.55023154  .00001339  00000+0  48619-3 0  9996
2 25983  45.0277 218.7121 0006210 104.0659 256.0880 14.37892831285707
ORBCOMM FM36            
1 25984U 99065E   24184.80662058  .00002094  00000+0  76495-3 0  9999
2 25984  45.0402 303.9046 0003124 307.9017  52.1548 14.35819461284750
ORBCOMM FM35            
1 25985U 99065F   24184.79582876  .00001546  00000+0  58335-3 0  9991
2 25985  45.0411 306.7899 0002341 118.2907 241.8177 14.35333276284557
ORBCOMM FM34            
1 25986U 99065G   24184.69774451  .00001482  00000+0  56147-3 0  9991
2 25986  45.0399 307.7972 0001958  20.5125 339.5801 14.35309650284655
ORBCOMM FM38            
1 33060U 08031A   24184.91605133  .00002837  00000+0  41867-3 0  9999
2 33060  48.4389 175.7045 0006027 340.0375  20.0303 14.77886587863024
ORBCOMM FM41            
1 33061U 08031B   24184.73311841  .00002642  00000+0  39441-3 0  9999
2 33061  48.4423 183.3189 0005305 325.9472 204.3295 14.77608896862498
ORBCOMM FM39            
1 33063U 08031D   24184.89701402  .00002147  00000+0  33406-3 0  9999
2 33063  48.4390 211.5089 0008191 301.2403  58.7708 14.76514274862128
